H1 CPF 01  gfz 2021 04 24 00  6141 tandemx   
H2 1003001  6202 36605    2021 04 24 00 59 42 2021 04 29 00 00 42   120 1 1  0 0 0
H9
10 0 59328  69822.000000  0   -6102707.505   2561269.013  -1921492.239
10 0 59328  69942.000000  0   -5748183.868   2605472.486  -2770727.248
10 0 59328  70062.000000  0   -5293139.905   2597171.431  -3571316.588
10 0 59328  70182.000000  0   -4746538.571   2534877.781  -4309270.436
10 0 59328  70302.000000  0   -4118938.836   2418215.429  -4971730.376
10 0 59328  70422.000000  0   -3422281.233   2247947.030  -5547187.225
10 0 59328  70542.000000  0   -2669653.545   2025977.878  -6025671.343
10 0 59328  70662.000000  0   -1875040.665   1755336.747  -6398915.579
10 0 59328  70782.000000  0   -1053061.909   1440133.738  -6660486.212
10 0 59328  70902.000000  0    -218704.604   1085496.943  -6805882.168
10 0 59328  71022.000000  0     612943.551    697489.377  -6832603.340
10 0 59328  71142.000000  0    1426959.945    283007.636  -6740190.626
10 0 59328  71262.000000  0    2208849.940   -150338.262  -6530233.251
10 0 59328  71382.000000  0    2944798.769   -594360.707  -6206343.921
10 0 59328  71502.000000  0    3621912.574  -1040444.708  -5774103.372
10 0 59328  71622.000000  0    4228442.483  -1479709.841  -5240973.373
10 0 59328  71742.000000  0    4753991.681  -1903183.390  -4616180.382
10 0 59328  71862.000000  0    5189699.784  -2301981.135  -3910566.736
10 0 59328  71982.000000  0    5528400.777  -2667491.483  -3136412.416
10 0 59328  72102.000000  0    5764751.499  -2991559.532  -2307228.211
10 0 59328  72222.000000  0    5895325.899  -3266666.760  -1437522.772
10 0 59328  72342.000000  0    5918672.789  -3486101.842   -542548.773
10 0 59328  72462.000000  0    5835335.107  -3644118.747    361968.529
10 0 59328  72582.000000  0    5647829.219  -3736077.454   1260113.886
10 0 59328  72702.000000  0    5360584.627  -3758564.014   2136071.661
10 0 59328  72822.000000  0    4979842.672  -3709483.921   2974413.818
10 0 59328  72942.000000  0    4513520.215  -3588129.011   3760378.659
10 0 59328  73062.000000  0    3971042.002  -3395215.250   4480135.998
10 0 59328  73182.000000  0    3363144.797  -3132892.381   5121034.425
10 0 59328  73302.000000  0    2701657.199  -2804722.724   5671823.558
10 0 59328  73422.000000  0    1999263.724  -2415631.205   6122848.561
10 0 59328  73542.000000  0    1269256.345  -1971828.795   6466214.322
10 0 59328  73662.000000  0     525279.662  -1480710.646   6695917.643
10 0 59328  73782.000000  0    -218925.632   -950730.396   6807946.250
10 0 59328  73902.000000  0    -949776.276   -391253.209   6800343.961
10 0 59328  74022.000000  0   -1654093.181    187609.655   6673242.360
10 0 59328  74142.000000  0   -2319338.188    775183.165   6428858.779
10 0 59328  74262.000000  0   -2933837.118   1360424.515   6071460.263
10 0 59328  74382.000000  0   -3486985.877   1932129.741   5607294.062
10 0 59328  74502.000000  0   -3969437.165   2479148.237   5044485.226
10 0 59328  74622.000000  0   -4373263.812   2990602.106   4392900.375
10 0 59328  74742.000000  0   -4692095.527   3456104.461   3663979.020
10 0 59328  74862.000000  0   -4921225.322   3865972.698   2870535.054
10 0 59328  74982.000000  0   -5057683.262   4211432.832   2026531.937
10 0 59328  75102.000000  0   -5100276.681   4484810.080   1146834.181
10 0 59328  75222.000000  0   -5049593.249   4679699.175    246938.743
10 0 59328  75342.000000  0   -4907968.228   4791109.350   -657305.437
10 0 59328  75462.000000  0   -4679416.956   4815583.044  -1549985.933
10 0 59328  75582.000000  0   -4369531.231   4751283.266  -2415416.766
10 0 59328  75702.000000  0   -3985345.444   4598046.307  -3238421.411
10 0 59328  75822.000000  0   -3535174.748   4357399.867  -4004603.227
10 0 59328  75942.000000  0   -3028430.807   4032547.335  -4700596.473
10 0 59328  76062.000000  0   -2475421.151   3628319.686  -5314294.018
10 0 59328  76182.000000  0   -1887137.654   3151098.039  -5835050.187
10 0 59328  76302.000000  0   -1275036.449   2608706.609  -6253856.583
10 0 59328  76422.000000  0    -650814.747   2010278.613  -6563486.555
10 0 59328  76542.000000  0     -26189.882   1366100.177  -6758607.982
10 0 59328  76662.000000  0     587315.677    687433.893  -6835865.368
10 0 59328  76782.000000  0    1178581.732    -13674.514  -6793932.417
10 0 59328  76902.000000  0    1737087.894   -724606.081  -6633531.750
10 0 59328  77022.000000  0    2253095.676  -1432389.883  -6357422.667
10 0 59328  77142.000000  0    2717815.363  -2123933.515  -5970359.108
10 0 59328  77262.000000  0    3123554.741  -2786259.589  -5479017.270
10 0 59328  77382.000000  0    3463849.089  -3406748.303  -4891892.732
10 0 59328  77502.000000  0    3733567.560  -3973378.911  -4219162.624
10 0 59328  77622.000000  0    3928993.478  -4474963.759  -3472519.457
10 0 59328  77742.000000  0    4047879.663  -4901373.532  -2664977.556
10 0 59328  77862.000000  0    4089476.342  -5243748.749  -1810651.853
10 0 59328  77982.000000  0    4054527.832  -5494690.630   -924511.724
10 0 59328  78102.000000  0    3945239.595  -5648425.669    -22115.990
10 0 59328  78222.000000  0    3765214.623  -5700939.952    880666.340
10 0 59328  78342.000000  0    3519361.578  -5650079.480   1767943.054
10 0 59328  78462.000000  0    3213775.922  -5495612.131   2624088.708
10 0 59328  78582.000000  0    2855596.228  -5239250.283   3434027.363
10 0 59328  78702.000000  0    2452841.719  -4884635.076   4183504.256
10 0 59328  78822.000000  0    2014234.821  -4437281.675   4859340.825
10 0 59328  78942.000000  0    1549012.342  -3904487.175   5449667.696
10 0 59328  79062.000000  0    1066730.660  -3295203.973   5944132.242
10 0 59328  79182.000000  0     577067.842  -2619880.985   6334075.718
10 0 59328  79302.000000  0      89629.147  -1890278.439   6612677.921
10 0 59328  79422.000000  0    -386240.429  -1119259.702   6775069.764
10 0 59328  79542.000000  0    -841634.044   -320562.867   6818414.525
10 0 59328  79662.000000  0   -1268248.721    491445.110   6741954.387
10 0 59328  79782.000000  0   -1658536.294   1302026.521   6547022.565
10 0 59328  79902.000000  0   -2005836.822   2096339.488   6237021.424
10 0 59328  80022.000000  0   -2304493.049   2859709.324   5817366.895
10 0 59328  80142.000000  0   -2549943.425   3577900.734   5295399.252
10 0 59328  80262.000000  0   -2738793.361   4237386.256   4680261.742
10 0 59328  80382.000000  0   -2868863.126   4825606.857   3982746.124
10 0 59328  80502.000000  0   -2939210.316   5331218.621   3215106.973
10 0 59328  80622.000000  0   -2950126.379   5744319.571   2390846.865
10 0 59328  80742.000000  0   -2903107.451   6056650.818   1524477.014
10 0 59328  80862.000000  0   -2800799.805   6261767.857    631257.527
10 0 59328  80982.000000  0   -2646920.848   6355177.753   -273078.034
10 0 59328  81102.000000  0   -2446158.317   6334438.111  -1172608.574
10 0 59328  81222.000000  0   -2204049.622   6199214.446  -2051517.089
10 0 59328  81342.000000  0   -1926842.469   5951290.757  -2894378.491
10 0 59328  81462.000000  0   -1621343.336   5594538.539  -3686433.249
10 0 59328  81582.000000  0   -1294758.610   5134846.704  -4413846.835
10 0 59328  81702.000000  0    -954531.278   4580012.270  -5063948.508
10 0 59328  81822.000000  0    -608177.373   3939597.745  -5625445.595
10 0 59328  81942.000000  0    -263125.001   3224757.050  -6088611.945
10 0 59328  82062.000000  0      73440.407   2448033.045  -6445446.081
10 0 59328  82182.000000  0     394720.528   1623133.412  -6689796.930
10 0 59328  82302.000000  0     694436.456    764689.451  -6817460.179
10 0 59328  82422.000000  0     966947.503   -112000.463  -6826242.800
10 0 59328  82542.000000  0    1207353.986   -991238.575  -6715996.141
10 0 59328  82662.000000  0    1411582.641  -1857201.816  -6488616.479
10 0 59328  82782.000000  0    1576454.264  -2694218.373  -6148016.153
10 0 59328  82902.000000  0    1699733.352  -3487045.509  -5700065.119
10 0 59328  83022.000000  0    1780157.520  -4221146.657  -5152500.777
10 0 59328  83142.000000  0    1817446.829  -4882959.207  -4514803.799
10 0 59328  83262.000000  0    1812293.071  -5460148.362  -3798045.237
10 0 59328  83382.000000  0    1766328.271  -5941845.740  -3014704.582
10 0 59328  83502.000000  0    1682072.077  -6318864.961  -2178459.006
10 0 59328  83622.000000  0    1562860.363  -6583888.086  -1303946.931
10 0 59328  83742.000000  0    1412755.670  -6731618.832   -406511.434
10 0 59328  83862.000000  0    1236441.283  -6758898.474    498074.308
10 0 59328  83982.000000  0    1039102.193  -6664777.999   1393890.825
10 0 59328  84102.000000  0     826294.369  -6450548.166   2265161.747
10 0 59328  84222.000000  0     603807.868  -6119722.024   3096541.838
10 0 59328  84342.000000  0     377524.544  -5677971.964   3873394.798
10 0 59328  84462.000000  0     153275.769  -5133025.029   4582055.136
10 0 59328  84582.000000  0     -63295.985  -4494518.870   5210071.042
10 0 59328  84702.000000  0    -266868.767  -3773821.107   5746422.556
10 0 59328  84822.000000  0    -452562.433  -2983817.091   6181712.484
10 0 59328  84942.000000  0    -616047.847  -2138670.454   6508324.611
10 0 59328  85062.000000  0    -753641.633  -1253565.155   6720549.427
10 0 59328  85182.000000  0    -862384.691   -344431.018   6814679.343
10 0 59328  85302.000000  0    -940103.714    572344.226   6789070.349
10 0 59328  85422.000000  0    -985453.782   1480210.347   6644168.821
10 0 59328  85542.000000  0    -997941.213   2362752.826   6382504.035
10 0 59328  85662.000000  0    -977927.213   3203989.376   6008646.864
10 0 59328  85782.000000  0    -926612.428   3988660.881   5529134.838
10 0 59328  85902.000000  0    -846001.648   4702511.390   4952363.302
10 0 59328  86022.000000  0    -738850.416   5332553.473   4288445.027
10 0 59328  86142.000000  0    -608593.495   5867313.000   3549036.198
10 0 59328  86262.000000  0    -459257.262   6297046.151   2747136.132
99
